[{"OBJECT_NAME":"AL MUNTHER","OBJECT_ID":"2025-052AG","EPOCH":"2026-03-09T15:29:23.207136","MEAN_MOTION":15.28381521,"ECCENTRICITY":0.0008027,"INCLINATION":97.4001,"RA_OF_ASC_NODE":323.9152,"ARG_OF_PERICENTER":130.7043,"MEAN_ANOMALY":229.4895,"EPHEMERIS_TYPE":0,"CLASSIFICATION_TYPE":"U","NORAD_CAT_ID":63240,"ELEMENT_SET_NO":999,"REV_AT_EPOCH":5479,"BSTAR":0.00065015,"MEAN_MOTION_DOT":0.00017933,"MEAN_MOTION_DDOT":0},{"OBJECT_NAME":"STARLINK-36124","OBJECT_ID":"2025-299V","EPOCH":"2026-03-09T22:00:01.999584","MEAN_MOTION":15.27574824,"ECCENTRICITY":0.0001908,"INCLINATION":43.0006,"RA_OF_ASC_NODE":167.8374,"ARG_OF_PERICENTER":251.054,"MEAN_ANOMALY":320.2018,"EPHEMERIS_TYPE":0,"CLASSIFICATION_TYPE":"U","NORAD_CAT_ID":67121,"ELEMENT_SET_NO":999,"REV_AT_EPOCH":590,"BSTAR":1.30678e-7,"MEAN_MOTION_DOT":-2.59e-6,"MEAN_MOTION_DDOT":0}]
